[{"OBJECT_NAME":"STARLINK-2102","OBJECT_ID":"2021-005AK","EPOCH":"2026-03-09T06:52:41.677536","MEAN_MOTION":15.30231467,"ECCENTRICITY":0.00012326,"INCLINATION":53.1615,"RA_OF_ASC_NODE":28.4239,"ARG_OF_PERICENTER":80.6038,"MEAN_ANOMALY":279.5102,"EPHEMERIS_TYPE":0,"CLASSIFICATION_TYPE":"U","NORAD_CAT_ID":47382,"ELEMENT_SET_NO":999,"REV_AT_EPOCH":28347,"BSTAR":0.00050860841,"MEAN_MOTION_DOT":0.00014749,"MEAN_MOTION_DDOT":0},{"OBJECT_NAME":"TIANMU-1 20","OBJECT_ID":"2023-208B","EPOCH":"2026-03-09T21:50:45.859200","MEAN_MOTION":15.31029249,"ECCENTRICITY":0.00061925,"INCLINATION":97.4323,"RA_OF_ASC_NODE":185.4313,"ARG_OF_PERICENTER":324.1763,"MEAN_ANOMALY":35.9062,"EPHEMERIS_TYPE":0,"CLASSIFICATION_TYPE":"U","NORAD_CAT_ID":58661,"ELEMENT_SET_NO":999,"REV_AT_EPOCH":12222,"BSTAR":0.0003681641,"MEAN_MOTION_DOT":0.00010969,"MEAN_MOTION_DDOT":0}]
